[{"OBJECT_NAME":"STARLINK-4572","OBJECT_ID":"2022-105AW","EPOCH":"2025-09-23T04:32:17.578176","MEAN_MOTION":15.09849249,"ECCENTRICITY":0.00037639,"INCLINATION":97.637,"RA_OF_ASC_NODE":147.4033,"ARG_OF_PERICENTER":67.9938,"MEAN_ANOMALY":292.1691,"EPHEMERIS_TYPE":0,"CLASSIFICATION_TYPE":"U","NORAD_CAT_ID":53692,"ELEMENT_SET_NO":999,"REV_AT_EPOCH":16818,"BSTAR":0.0027096366,"MEAN_MOTION_DOT":0.00044022,"MEAN_MOTION_DDOT":0},{"OBJECT_NAME":"STARLINK-4566","OBJECT_ID":"2022-105AX","EPOCH":"2025-09-23T05:10:49.465920","MEAN_MOTION":15.01479213,"ECCENTRICITY":0.00013242,"INCLINATION":97.6031,"RA_OF_ASC_NODE":146.2582,"ARG_OF_PERICENTER":183.545,"MEAN_ANOMALY":176.5765,"EPHEMERIS_TYPE":0,"CLASSIFICATION_TYPE":"U","NORAD_CAT_ID":53693,"ELEMENT_SET_NO":999,"REV_AT_EPOCH":16811,"BSTAR":0.0022090985,"MEAN_MOTION_DOT":0.00028595,"MEAN_MOTION_DDOT":0},{"OBJECT_NAME":"STARLINK-4725","OBJECT_ID":"2022-107A","EPOCH":"2025-09-22T17:38:13.207776","MEAN_MOTION":15.08841532,"ECCENTRICITY":0.00013312,"INCLINATION":53.2164,"RA_OF_ASC_NODE":277.7255,"ARG_OF_PERICENTER":87.0009,"MEAN_ANOMALY":273.1135,"EPHEMERIS_TYPE":0,"CLASSIFICATION_TYPE":"U","NORAD_CAT_ID":53700,"ELEMENT_SET_NO":999,"REV_AT_EPOCH":16950,"BSTAR":6.3528106e-5,"MEAN_MOTION_DOT":7.23e-6,"MEAN_MOTION_DDOT":0},{"OBJECT_NAME":"STARLINK-4711","OBJECT_ID":"2022-107B","EPOCH":"2025-09-23T04:40:36.984864","MEAN_MOTION":15.08843447,"ECCENTRICITY":0.00013528,"INCLINATION":53.2159,"RA_OF_ASC_NODE":275.6229,"ARG_OF_PERICENTER":88.5472,"MEAN_ANOMALY":271.5675,"EPHEMERIS_TYPE":0,"CLASSIFICATION_TYPE":"U","NORAD_CAT_ID":53701,"ELEMENT_SET_NO":999,"REV_AT_EPOCH":16957,"BSTAR":7.3926718e-5,"MEAN_MOTION_DOT":8.89e-6,"MEAN_MOTION_DDOT":0},{"OBJECT_NAME":"STARLINK-4724","OBJECT_ID":"2022-107C","EPOCH":"2025-09-23T06:52:29.477856","MEAN_MOTION":15.08838313,"ECCENTRICITY":0.00014353,"INCLINATION":53.2157,"RA_OF_ASC_NODE":260.5261,"ARG_OF_PERICENTER":87.0692,"MEAN_ANOMALY":273.0464,"EPHEMERIS_TYPE":0,"CLASSIFICATION_TYPE":"U","NORAD_CAT_ID":53702,"ELEMENT_SET_NO":999,"REV_AT_EPOCH":16982,"BSTAR":2.1164315e-5,"MEAN_MOTION_DOT":4.9e-7,"MEAN_MOTION_DDOT":0},{"OBJECT_NAME":"STARLINK-4731","OBJECT_ID":"2022-107D","EPOCH":"2025-09-23T05:01:49.891008","MEAN_MOTION":15.08860077,"ECCENTRICITY":0.00012876,"INCLINATION":53.2157,"RA_OF_ASC_NODE":275.7125,"ARG_OF_PERICENTER":82.4179,"MEAN_ANOMALY":277.696,"EPHEMERIS_TYPE":0,"CLASSIFICATION_TYPE":"U","NORAD_CAT_ID":53703,"ELEMENT_SET_NO":999,"REV_AT_EPOCH":16957,"BSTAR":0.00014798058,"MEAN_MOTION_DOT":2.069e-5,"MEAN_MOTION_DDOT":0},{"OBJECT_NAME":"STARLINK-4714","OBJECT_ID":"2022-107E","EPOCH":"2025-09-23T04:35:27.013632","MEAN_MOTION":15.08827956,"ECCENTRICITY":0.00016006,"INCLINATION":53.2173,"RA_OF_ASC_NODE":276.3061,"ARG_OF_PERICENTER":103.874,"MEAN_ANOMALY":256.243,"EPHEMERIS_TYPE":0,"CLASSIFICATION_TYPE":"U","NORAD_CAT_ID":53704,"ELEMENT_SET_NO":999,"REV_AT_EPOCH":16940,"BSTAR":-3.117433e-5,"MEAN_MOTION_DOT":-7.84e-6,"MEAN_MOTION_DDOT":0},{"OBJECT_NAME":"STARLINK-4717","OBJECT_ID":"2022-107F","EPOCH":"2025-09-23T04:30:07.758720","MEAN_MOTION":15.08843724,"ECCENTRICITY":0.00013702,"INCLINATION":53.2163,"RA_OF_ASC_NODE":276.2837,"ARG_OF_PERICENTER":88.3867,"MEAN_ANOMALY":271.7282,"EPHEMERIS_TYPE":0,"CLASSIFICATION_TYPE":"U","NORAD_CAT_ID":53705,"ELEMENT_SET_NO":999,"REV_AT_EPOCH":16956,"BSTAR":8.7245649e-5,"MEAN_MOTION_DOT":1.101e-5,"MEAN_MOTION_DDOT":0},{"OBJECT_NAME":"STARLINK-4716","OBJECT_ID":"2022-107G","EPOCH":"2025-09-23T00:58:07.884192","MEAN_MOTION":15.08842806,"ECCENTRICITY":0.00013192,"INCLINATION":53.2159,"RA_OF_ASC_NODE":276.7902,"ARG_OF_PERICENTER":90.1295,"MEAN_ANOMALY":269.9848,"EPHEMERIS_TYPE":0,"CLASSIFICATION_TYPE":"U","NORAD_CAT_ID":53706,"ELEMENT_SET_NO":999,"REV_AT_EPOCH":16954,"BSTAR":5.6979428e-5,"MEAN_MOTION_DOT":6.19e-6,"MEAN_MOTION_DDOT":0},{"OBJECT_NAME":"STARLINK-4667","OBJECT_ID":"2022-107H","EPOCH":"2025-09-23T03:57:39.301344","MEAN_MOTION":15.08849582,"ECCENTRICITY":0.00012761,"INCLINATION":53.2161,"RA_OF_ASC_NODE":261.1817,"ARG_OF_PERICENTER":83.7216,"MEAN_ANOMALY":276.3922,"EPHEMERIS_TYPE":0,"CLASSIFICATION_TYPE":"U","NORAD_CAT_ID":53707,"ELEMENT_SET_NO":999,"REV_AT_EPOCH":16977,"BSTAR":0.00018588018,"MEAN_MOTION_DOT":2.672e-5,"MEAN_MOTION_DDOT":0},{"OBJECT_NAME":"STARLINK-4694","OBJECT_ID":"2022-107J","EPOCH":"2025-09-23T06:47:08.729952","MEAN_MOTION":15.08864676,"ECCENTRICITY":0.00011856,"INCLINATION":53.2144,"RA_OF_ASC_NODE":260.502,"ARG_OF_PERICENTER":78.5197,"MEAN_ANOMALY":281.5928,"EPHEMERIS_TYPE":0,"CLASSIFICATION_TYPE":"U","NORAD_CAT_ID":53708,"ELEMENT_SET_NO":999,"REV_AT_EPOCH":16979,"BSTAR":0.00016245933,"MEAN_MOTION_DOT":2.3e-5,"MEAN_MOTION_DDOT":0},{"OBJECT_NAME":"STARLINK-4685","OBJECT_ID":"2022-107K","EPOCH":"2025-09-23T04:53:13.114464","MEAN_MOTION":15.08845412,"ECCENTRICITY":0.00012984,"INCLINATION":53.217,"RA_OF_ASC_NODE":280.6883,"ARG_OF_PERICENTER":88.0969,"MEAN_ANOMALY":272.0172,"EPHEMERIS_TYPE":0,"CLASSIFICATION_TYPE":"U","NORAD_CAT_ID":53709,"ELEMENT_SET_NO":999,"REV_AT_EPOCH":16919,"BSTAR":-1.4608557e-5,"MEAN_MOTION_DOT":-5.2e-6,"MEAN_MOTION_DDOT":0},{"OBJECT_NAME":"STARLINK-4627","OBJECT_ID":"2022-107M","EPOCH":"2025-09-23T05:09:09.952128","MEAN_MOTION":15.08829254,"ECCENTRICITY":0.00012461,"INCLINATION":53.2166,"RA_OF_ASC_NODE":280.7486,"ARG_OF_PERICENTER":90.9538,"MEAN_ANOMALY":269.1597,"EPHEMERIS_TYPE":0,"CLASSIFICATION_TYPE":"U","NORAD_CAT_ID":53711,"ELEMENT_SET_NO":999,"REV_AT_EPOCH":16919,"BSTAR":-6.761048e-6,"MEAN_MOTION_DOT":-3.95e-6,"MEAN_MOTION_DDOT":0},{"OBJECT_NAME":"STARLINK-4683","OBJECT_ID":"2022-107N","EPOCH":"2025-09-23T04:31:59.967264","MEAN_MOTION":15.08842115,"ECCENTRICITY":0.0001267,"INCLINATION":53.2174,"RA_OF_ASC_NODE":280.6074,"ARG_OF_PERICENTER":94.1859,"MEAN_ANOMALY":265.9278,"EPHEMERIS_TYPE":0,"CLASSIFICATION_TYPE":"U","NORAD_CAT_ID":53712,"ELEMENT_SET_NO":999,"REV_AT_EPOCH":16921,"BSTAR":3.5829875e-5,"MEAN_MOTION_DOT":2.82e-6,"MEAN_MOTION_DDOT":0},{"OBJECT_NAME":"STARLINK-4686","OBJECT_ID":"2022-107R","EPOCH":"2025-09-23T05:00:30.530016","MEAN_MOTION":15.08847605,"ECCENTRICITY":0.00014413,"INCLINATION":53.2169,"RA_OF_ASC_NODE":285.6889,"ARG_OF_PERICENTER":95.4744,"MEAN_ANOMALY":264.6413,"EPHEMERIS_TYPE":0,"CLASSIFICATION_TYPE":"U","NORAD_CAT_ID":53715,"ELEMENT_SET_NO":999,"REV_AT_EPOCH":16913,"BSTAR":6.3561726e-5,"MEAN_MOTION_DOT":7.24e-6,"MEAN_MOTION_DDOT":0},{"OBJECT_NAME":"STARLINK-4699","OBJECT_ID":"2022-107S","EPOCH":"2025-09-23T04:55:12.646272","MEAN_MOTION":15.08853902,"ECCENTRICITY":0.00014077,"INCLINATION":53.2159,"RA_OF_ASC_NODE":285.6666,"ARG_OF_PERICENTER":83.0018,"MEAN_ANOMALY":277.1134,"EPHEMERIS_TYPE":0,"CLASSIFICATION_TYPE":"U","NORAD_CAT_ID":53716,"ELEMENT_SET_NO":999,"REV_AT_EPOCH":16912,"BSTAR":9.5675833e-5,"MEAN_MOTION_DOT":1.236e-5,"MEAN_MOTION_DDOT":0}]
