STARLINK-4572           
1 53692U 22105AW  25266.18909234  .00044022  00000+0  27096-2 0  9999
2 53692  97.6370 147.4033 0003763  67.9938 292.1691 15.09849249168187
STARLINK-4566           
1 53693U 22105AX  25266.21585030  .00028595  00000+0  22091-2 0  9995
2 53693  97.6031 146.2582 0001324 183.5450 176.5765 15.01479213168115
STARLINK-4725           
1 53700U 22107A   25265.73487509  .00000723  00000+0  63528-4 0  9999
2 53700  53.2164 277.7255 0001331  87.0009 273.1135 15.08841532169505
STARLINK-4711           
1 53701U 22107B   25266.19487251  .00000889  00000+0  73927-4 0  9992
2 53701  53.2159 275.6229 0001352  88.5472 271.5675 15.08843447169576
STARLINK-4724           
1 53702U 22107C   25266.28645229  .00000049  00000+0  21164-4 0  9998
2 53702  53.2157 260.5261 0001435  87.0692 273.0464 15.08838313169821
STARLINK-4731           
1 53703U 22107D   25266.20960522  .00002069  00000+0  14798-3 0  9995
2 53703  53.2157 275.7125 0001287  82.4179 277.6960 15.08860077169578
STARLINK-4714           
1 53704U 22107E   25266.19128488 -.00000784  00000+0 -31174-4 0  9993
2 53704  53.2173 276.3061 0001600 103.8740 256.2430 15.08827956169400
STARLINK-4717           
1 53705U 22107F   25266.18758980  .00001101  00000+0  87246-4 0  9992
2 53705  53.2163 276.2837 0001370  88.3867 271.7282 15.08843724169566
STARLINK-4716           
1 53706U 22107G   25266.04036903  .00000619  00000+0  56979-4 0  9994
2 53706  53.2159 276.7902 0001319  90.1295 269.9848 15.08842806169544
STARLINK-4667           
1 53707U 22107H   25266.16503821  .00002672  00000+0  18588-3 0  9990
2 53707  53.2161 261.1817 0001276  83.7216 276.3922 15.08849582169772
STARLINK-4694           
1 53708U 22107J   25266.28273993  .00002300  00000+0  16246-3 0  9995
2 53708  53.2144 260.5020 0001185  78.5197 281.5928 15.08864676169799
STARLINK-4685           
1 53709U 22107K   25266.20362401 -.00000520  00000+0 -14609-4 0  9997
2 53709  53.2170 280.6883 0001298  88.0969 272.0172 15.08845412169194
STARLINK-4627           
1 53711U 22107M   25266.21469852 -.00000395  00000+0 -67610-5 0  9990
2 53711  53.2166 280.7486 0001246  90.9538 269.1597 15.08829254169193
STARLINK-4683           
1 53712U 22107N   25266.18888851  .00000282  00000+0  35830-4 0  9992
2 53712  53.2174 280.6074 0001267  94.1859 265.9278 15.08842115169214
STARLINK-4686           
1 53715U 22107R   25266.20868669  .00000724  00000+0  63562-4 0  9997
2 53715  53.2169 285.6889 0001441  95.4744 264.6413 15.08847605169138
STARLINK-4699           
1 53716U 22107S   25266.20500748  .00001236  00000+0  95676-4 0  9999
2 53716  53.2159 285.6666 0001407  83.0018 277.1134 15.08853902169125
